2024-174D               
1 61241U 24174D   26177.97880821  .00008441  00000+0  29477-3 0  9996
2 61241  97.4371 189.4268 0011711 185.4873 174.6241 15.29769508 97410
2024-174E               
1 61242U 24174E   26177.96360959  .00006780  00000+0  25305-3 0  9991
2 61242  97.4449 188.9215 0012817 191.3389 168.7563 15.27654192 97331
STARLINK-11300 [DTC]    
1 61243U 24175A   26177.54829066 -.00001907  00000+0 -10895-4 0  9993
2 61243  53.1576 239.6541 0001093 109.2754 250.8382 15.69695072100465
STARLINK-11276 [DTC]    
1 61244U 24175B   26177.41603845 -.00001533  00000+0 -78060-5 0  9999
2 61244  53.1577 240.2517 0000647 128.8320 231.2755 15.69700620100449
STARLINK-11280 [DTC]    
1 61245U 24175C   26177.59724685  .00000406  00000+0  82134-5 0  9998
2 61245  53.1579 239.2514 0001051  78.0357 282.0779 15.69688154100473
STARLINK-11308 [DTC]    
1 61246U 24175D   26177.60214156 -.00000694  00000+0 -87589-6 0  9999
2 61246  53.1579 239.2771 0000767 100.7805 259.3299 15.69702207100473
STARLINK-11305 [DTC]    
1 61247U 24175E   26177.59233255 -.00001135  00000+0 -45155-5 0  9992
2 61247  53.1585 239.2121 0001003  93.3763 266.7369 15.69700678100474
STARLINK-11317 [DTC]    
1 61248U 24175F   26177.46009289 -.00000984  00000+0 -32700-5 0  9990
2 61248  53.1584 239.8033 0000787  86.4283 273.6825 15.69695746100451
STARLINK-11293 [DTC]    
1 61249U 24175G   26177.58252802 -.00001354  00000+0 -63266-5 0  9998
2 61249  53.1573 239.1447 0001128  63.0591 297.0542 15.69695977100479
STARLINK-11319 [DTC]    
1 61251U 24175J   26177.89115698 -.00000466  00000+0  10058-5 0  9999
2 61251  53.1595 238.2465 0000938  81.7003 278.4121 15.69705452100510
STARLINK-11318 [DTC]    
1 61252U 24175K   26177.88625021 -.00000533  00000+0  45988-6 0  9991
2 61252  53.1593 238.2136 0000998  66.7515 293.3607 15.69704828101681
STARLINK-11311 [DTC]    
1 61253U 24175L   26177.88134420  .00000151  00000+0  61022-5 0  9991
2 61253  53.1586 238.1786 0001032  84.9006 275.2129 15.69707923101723
STARLINK-11306 [DTC]    
1 61254U 24175M   26177.87643672 -.00000515  00000+0  59813-6 0  9996
2 61254  53.1572 238.1471 0000597  81.7132 278.3954 15.69708276101711
STARLINK-11313 [DTC]    
1 61255U 24175N   26177.87153247 -.00000012  00000+0  47523-5 0  9997
2 61255  53.1564 238.1147 0000655 104.9440 255.1651 15.69707253100516
STARLINK-32431          
1 61256U 24175P   26177.95005637 -.00001050  00000+0 -19962-4 0  9995
2 61256  53.1607  45.7029 0001504  87.4716 272.6459 15.34375462 98196
STARLINK-32432          
1 61257U 24175Q   26177.94374751 -.00001479  00000+0 -32679-4 0  9996
2 61257  53.1606  45.6663 0001501  73.1135 287.0032 15.34373032 98191
STARLINK-32382          
1 61258U 24175R   26177.93111654 -.00000697  00000+0 -94900-5 0  9994
2 61258  53.1627  45.5898 0001327  98.5216 261.5937 15.34377196 98197
STARLINK-32435          
1 61259U 24175S   26177.91638171 -.00001598  00000+0 -36180-4 0  9997
2 61259  53.1609  45.4994 0001225  84.0675 276.0468 15.34384988 98197
STARLINK-32474          
1 61260U 24175T   26177.89754398 -.00001616  00000+0 -36720-4 0  9997
2 61260  53.1598  46.0851 0001311  99.6075 260.5076 15.34372526 98184
STARLINK-32447          
1 61261U 24175U   26177.95637422  .00011737  00000+0  35817-3 0  9991
2 61261  53.1606  45.7456 0001316  95.8232 264.2921 15.34380102 98190
STARLINK-32446          
1 61262U 24175V   26177.91848856 -.00001903  00000+0 -45220-4 0  9999
2 61262  53.1619  45.5115 0001172  78.3821 281.7313 15.34385724 98199
HULIANWAN GAOGUI-03 (H*)
1 61503U 24181A   26177.97544845 -.00000230  00000+0  00000+0 0  9994
2 61503   0.0470 357.3343 0001542  88.8259 102.9705  1.00274039  6925
STARLINK-32174          
1 61509U 24183A   26177.76253397 -.00000547  00000+0 -50712-5 0  9991
2 61509  53.1623 342.2062 0001367  82.7656 277.3502 15.34376789 96546
STARLINK-32139          
1 61510U 24183B   26177.91615618 -.00000382  00000+0 -53248-6 0  9993
2 61510  53.1623 354.5326 0001713  75.2301 284.8890 15.31700609 96380
STARLINK-32140          
1 61511U 24183C   26177.89749158 -.00001033  00000+0 -21531-4 0  9990
2 61511  53.1610 354.4212 0001030  78.7963 281.3154 15.31689803 96381
STARLINK-32201          
1 61512U 24183D   26177.83608440 -.00000437  00000+0 -18031-5 0  9992
2 61512  53.1608 341.9562 0001226  94.1242 265.9901 15.34381229 96547
STARLINK-32030          
1 61513U 24183E   26177.91521468 -.00000759  00000+0 -13513-4 0  9992
2 61513  53.1623 355.2318 0001255  60.2779 299.8346 15.30184220 96371
STARLINK-31837          
1 61514U 24183F   26177.90254541 -.00000407  00000+0 -16169-5 0  9998
2 61514  53.1621 355.1429 0001210  79.2912 280.8225 15.30188333 96377
STARLINK-32136          
1 61515U 24183G   26177.86491481 -.00001348  00000+0 -31685-4 0  9994
2 61515  53.1601 354.9249 0001367 100.4302 259.6854 15.31687333 96373
STARLINK-32047          
1 61516U 24183H   26177.90681430  .00001545  00000+0  61547-4 0  9992
2 61516  53.1602 354.4646 0001093  90.6731 269.4396 15.31701344 96383
