OBJECT_NAME,OBJECT_ID,EPOCH,MEAN_MOTION,ECCENTRICITY,INCLINATION,RA_OF_ASC_NODE,ARG_OF_PERICENTER,MEAN_ANOMALY,EPHEMERIS_TYPE,CLASSIFICATION_TYPE,NORAD_CAT_ID,ELEMENT_SET_NO,REV_AT_EPOCH,BSTAR,MEAN_MOTION_DOT,MEAN_MOTION_DDOT
2024-174D,2024-174D,2026-06-26T23:29:29.029344,15.29769508,.00117116,97.4371,189.4268,185.4873,174.6241,0,U,61241,999,9741,.29477368E-3,.8441E-4,0
2024-174E,2024-174E,2026-06-26T23:07:35.868576,15.27654192,.00128178,97.4449,188.9215,191.3389,168.7563,0,U,61242,999,9733,.25305081E-3,.678E-4,0
STARLINK-11300 [DTC],2024-175A,2026-06-26T13:09:32.313024,15.69695072,.0001093,53.1576,239.6541,109.2754,250.8382,0,U,61243,999,10046,-.10895E-4,-.1907E-4,0
STARLINK-11276 [DTC],2024-175B,2026-06-26T09:59:05.722080,15.69700620,.0000647,53.1577,240.2517,128.8320,231.2755,0,U,61244,999,10044,-.7806E-5,-.1533E-4,0
STARLINK-11280 [DTC],2024-175C,2026-06-26T14:20:02.127840,15.69688154,.0001051,53.1579,239.2514,78.0357,282.0779,0,U,61245,999,10047,.82134E-5,.406E-5,0
STARLINK-11308 [DTC],2024-175D,2026-06-26T14:27:05.030784,15.69702207,.0000767,53.1579,239.2771,100.7805,259.3299,0,U,61246,999,10047,-.87589E-6,-.694E-5,0
STARLINK-11305 [DTC],2024-175E,2026-06-26T14:12:57.532320,15.69700678,.0001003,53.1585,239.2121,93.3763,266.7369,0,U,61247,999,10047,-.45155E-5,-.1135E-4,0
STARLINK-11317 [DTC],2024-175F,2026-06-26T11:02:32.025696,15.69695746,.0000787,53.1584,239.8033,86.4283,273.6825,0,U,61248,999,10045,-.327E-5,-.984E-5,0
STARLINK-11293 [DTC],2024-175G,2026-06-26T13:58:50.420928,15.69695977,.0001128,53.1573,239.1447,63.0591,297.0542,0,U,61249,999,10047,-.63266E-5,-.1354E-4,0
STARLINK-11319 [DTC],2024-175J,2026-06-26T21:23:15.963072,15.69705452,.00009384,53.1595,238.2465,81.7003,278.4121,0,U,61251,999,10051,.1005774E-5,-.466E-5,0
STARLINK-11318 [DTC],2024-175K,2026-06-26T21:16:12.018144,15.69704828,.0000998,53.1593,238.2136,66.7515,293.3607,0,U,61252,999,10168,.459877E-6,-.533E-5,0
STARLINK-11311 [DTC],2024-175L,2026-06-26T21:09:08.138880,15.69707923,.00010326,53.1586,238.1786,84.9006,275.2129,0,U,61253,999,10172,.6102237E-5,.151E-5,0
STARLINK-11306 [DTC],2024-175M,2026-06-26T21:02:04.132608,15.69708276,.00005971,53.1572,238.1471,81.7132,278.3954,0,U,61254,999,10171,.59813E-6,-.515E-5,0
STARLINK-11313 [DTC],2024-175N,2026-06-26T20:55:00.405408,15.69707253,.00006552,53.1564,238.1147,104.9440,255.1651,0,U,61255,999,10051,.475231E-5,-.12E-6,0
STARLINK-32431,2024-175P,2026-06-26T22:48:04.870368,15.34375462,.0001504,53.1607,45.7029,87.4716,272.6459,0,U,61256,999,9819,-.19961759E-4,-.105E-4,0
STARLINK-32432,2024-175Q,2026-06-26T22:38:59.784864,15.34373032,.00015013,53.1606,45.6663,73.1135,287.0032,0,U,61257,999,9819,-.32678614E-4,-.1479E-4,0
STARLINK-32382,2024-175R,2026-06-26T22:20:48.469056,15.34377196,.00013278,53.1627,45.5898,98.5216,261.5937,0,U,61258,999,9819,-.9490026E-5,-.697E-5,0
STARLINK-32435,2024-175S,2026-06-26T21:59:35.379744,15.34384988,.0001225,53.1609,45.4994,84.0675,276.0468,0,U,61259,999,9819,-.36180424E-4,-.1598E-4,0
STARLINK-32474,2024-175T,2026-06-26T21:32:27.799872,15.34372526,.00013118,53.1598,46.0851,99.6075,260.5076,0,U,61260,999,9818,-.36720412E-4,-.1616E-4,0
STARLINK-32447,2024-175U,2026-06-26T22:57:10.732608,15.34380102,.00013163,53.1606,45.7456,95.8232,264.2921,0,U,61261,999,9819,.35817152E-3,.11737E-3,0
STARLINK-32446,2024-175V,2026-06-26T22:02:37.411584,15.34385724,.00011722,53.1619,45.5115,78.3821,281.7313,0,U,61262,999,9819,-.4521985E-4,-.1903E-4,0
HULIANWAN GAOGUI-03 (HG-03),2024-181A,2026-06-26T23:24:38.746080,1.00274039,.0001542,0.0470,357.3343,88.8259,102.9705,0,U,61503,999,692,0,-.23E-5,0
STARLINK-32174,2024-183A,2026-06-26T18:18:02.935008,15.34376789,.00013671,53.1623,342.2062,82.7656,277.3502,0,U,61509,999,9654,-.5071179E-5,-.547E-5,0
STARLINK-32139,2024-183B,2026-06-26T21:59:15.893952,15.31700609,.00017133,53.1623,354.5326,75.2301,284.8890,0,U,61510,999,9638,-.532484E-6,-.382E-5,0
STARLINK-32140,2024-183C,2026-06-26T21:32:23.272512,15.31689803,.00010308,53.1610,354.4212,78.7963,281.3154,0,U,61511,999,9638,-.21531343E-4,-.1033E-4,0
STARLINK-32201,2024-183D,2026-06-26T20:03:57.692160,15.34381229,.0001226,53.1608,341.9562,94.1242,265.9901,0,U,61512,999,9654,-.1803085E-5,-.437E-5,0
STARLINK-32030,2024-183E,2026-06-26T21:57:54.548352,15.30184220,.00012559,53.1623,355.2318,60.2779,299.8346,0,U,61513,999,9637,-.13512702E-4,-.759E-5,0
STARLINK-31837,2024-183F,2026-06-26T21:39:39.923424,15.30188333,.00012101,53.1621,355.1429,79.2912,280.8225,0,U,61514,999,9637,-.1616935E-5,-.407E-5,0
STARLINK-32136,2024-183G,2026-06-26T20:45:28.639584,15.31687333,.00013675,53.1601,354.9249,100.4302,259.6854,0,U,61515,999,9637,-.31685139E-4,-.1348E-4,0
STARLINK-32047,2024-183H,2026-06-26T21:45:48.755520,15.31701344,.00010934,53.1602,354.4646,90.6731,269.4396,0,U,61516,999,9638,.61547459E-4,.1545E-4,0
